{
"type": "FeatureCollection",
"name": "bdforetp33",
"crs": { "type": "name", "properties": { "name": "urn:ogc:def:crs:EPSG::2154" } },
"features": [
{ "type": "Feature", "properties": { "fid": 33, "id": "FORESTIE0000000005110235", "code_tfv": "FF2G61-61", "tfv": "Forêt fermée de sapin ou épicéa", "tfv_g11": "Forêt fermée conifères", "essence": "Sapin, épicéa" }, "geometry": { "type": "MultiPolygon", "coordinates": [ [ [ [ 843133.869599999976344, 6904304.599100000225008 ], [ 843213.3175, 6904265.103699999861419 ], [ 843297.299, 6904251.445899999700487 ], [ 843493.736000000033528, 6904155.421400000341237 ], [ 843541.8874, 6904131.883500000461936 ], [ 843544.248799999943003, 6904130.729299999773502 ], [ 843550.664499999955297, 6904125.908300000242889 ], [ 843540.267600000021048, 6904120.156899999827147 ], [ 843513.28000000002794, 6904127.035899999551475 ], [ 843494.229999999981374, 6904126.506699999794364 ], [ 843420.675700000021607, 6904148.2027000002563 ], [ 843393.688100000028498, 6904155.61089999973774 ], [ 843378.342199999955483, 6904137.619300000369549 ], [ 843347.650499999988824, 6904123.86089999973774 ], [ 843319.604599999962375, 6904115.92339999973774 ], [ 843315.3713, 6904108.515100000426173 ], [ 843336.537999999942258, 6904096.3443 ], [ 843371.463100000051782, 6904088.4068 ], [ 843377.283900000038557, 6904066.710699999704957 ], [ 843383.633900000015274, 6904059.302500000223517 ], [ 843465.654899999964982, 6904031.256699999794364 ], [ 843496.875800000037998, 6904025.435700000263751 ], [ 843525.450900000054389, 6904016.439899999648333 ], [ 843529.15500000002794, 6904016.439899999648333 ], [ 843534.446699999971315, 6904034.431599999777973 ], [ 843534.975899999961257, 6904047.131699999794364 ], [ 843525.979999999981374, 6904057.1859 ], [ 843522.805000000051223, 6904070.944199999794364 ], [ 843528.62589999998454, 6904086.29009999986738 ], [ 843549.792600000044331, 6904082.585900000296533 ], [ 843593.184299999964423, 6904060.889999999664724 ], [ 843623.8761, 6904055.598299999721348 ], [ 843641.422600000048988, 6904058.436599999666214 ], [ 843735.0259, 6903997.554999999701977 ], [ 843790.976799999945797, 6903984.137299999594688 ], [ 843896.668300000019372, 6903987.545099999755621 ], [ 843944.78000000002794, 6903974.630599999800324 ], [ 844012.845500000054017, 6903956.360500000417233 ], [ 844126.557599999941885, 6903933.6097999997437 ], [ 844166.900000000023283, 6903919.099899999797344 ], [ 844258.800000000046566, 6903884.2001 ], [ 844278.8051, 6903876.982300000265241 ], [ 844354.699999999953434, 6903849.599899999797344 ], [ 844411.0, 6903827.599899999797344 ], [ 844421.599999999976717, 6903823.099899999797344 ], [ 844430.099999999976717, 6903817.900000000372529 ], [ 844440.599999999976717, 6903809.799999999813735 ], [ 844441.843699999968521, 6903808.684999999590218 ], [ 844446.400000000023283, 6903804.599899999797344 ], [ 844451.699999999953434, 6903798.7001 ], [ 844456.099999999976717, 6903790.599899999797344 ], [ 844463.800000000046566, 6903775.400000000372529 ], [ 844475.099999999976717, 6903756.2001 ], [ 844486.800000000046566, 6903733.500099999830127 ], [ 844499.599999999976717, 6903711.400000000372529 ], [ 844510.800000000046566, 6903691.7001 ], [ 844523.599999999976717, 6903671.900000000372529 ], [ 844533.800000000046566, 6903659.7001 ], [ 844544.900000000023283, 6903648.000099999830127 ], [ 844558.099999999976717, 6903636.000099999830127 ], [ 844576.900000000023283, 6903619.7001 ], [ 844592.5, 6903606.7001 ], [ 844609.699999999953434, 6903594.299999999813735 ], [ 844625.400000000023283, 6903583.099899999797344 ], [ 844639.300000000046566, 6903570.599899999797344 ], [ 844653.400000000023283, 6903553.500099999830127 ], [ 844674.800000000046566, 6903530.500099999830127 ], [ 844690.699999999953434, 6903512.500099999830127 ], [ 844700.199999999953434, 6903503.099899999797344 ], [ 844716.599999999976717, 6903493.900000000372529 ], [ 844737.599999999976717, 6903484.000099999830127 ], [ 844762.5, 6903473.500099999830127 ], [ 844786.5, 6903463.000099999830127 ], [ 844806.599999999976717, 6903454.299999999813735 ], [ 844827.400000000023283, 6903444.799999999813735 ], [ 844847.900000000023283, 6903430.799999999813735 ], [ 844857.800000000046566, 6903421.799999999813735 ], [ 844891.599999999976717, 6903398.900000000372529 ], [ 844918.699999999953434, 6903375.2001 ], [ 844967.400000000023283, 6903329.799999999813735 ], [ 844996.800000000046566, 6903302.900000000372529 ], [ 845018.300000000046566, 6903279.2001 ], [ 845031.800000000046566, 6903255.500099999830127 ], [ 845040.599999999976717, 6903229.7001 ], [ 845053.0, 6903204.000099999830127 ], [ 845074.400000000023283, 6903170.7001 ], [ 845083.300000000046566, 6903151.299999999813735 ], [ 845099.0, 6903114.799999999813735 ], [ 845108.199999999953434, 6903084.500099999830127 ], [ 845146.400000000023283, 6903059.500099999830127 ], [ 845190.800000000046566, 6903027.000099999830127 ], [ 845245.812900000018999, 6903000.094700000248849 ], [ 845226.3151, 6902988.0828 ], [ 845226.2069, 6902988.014399999752641 ], [ 845222.550900000031106, 6902985.642699999734759 ], [ 845166.191800000029616, 6902950.568199999630451 ], [ 845084.8896, 6902899.866899999789894 ], [ 844961.589400000055321, 6902822.966799999587238 ], [ 844961.49710000003688, 6902822.907999999821186 ], [ 844943.699400000041351, 6902811.309399999678135 ], [ 844869.433500000042841, 6902763.331500000320375 ], [ 844791.645499999984168, 6902713.838999999687076 ], [ 844727.64249999995809, 6902673.037100000306964 ], [ 844679.982199999969453, 6902642.626199999824166 ], [ 844653.327399999951012, 6902627.807099999859929 ], [ 844653.25, 6902627.7632 ], [ 844652.938300000037998, 6902627.5691 ], [ 844614.190900000045076, 6902601.604299999773502 ], [ 844568.040000000037253, 6902572.135599999688566 ], [ 844567.8136, 6902571.983 ], [ 844547.413599999970756, 6902557.483 ], [ 844547.167299999971874, 6902557.2972999997437 ], [ 844530.267299999948591, 6902543.7972999997437 ], [ 844530.172400000039488, 6902543.719700000248849 ], [ 844511.26859999995213, 6902527.916500000283122 ], [ 844510.933100000023842, 6902527.6113 ], [ 844484.4386, 6902501.4167 ], [ 844448.790900000021793, 6902466.367999999783933 ], [ 844444.140800000051968, 6902462.014899999834597 ], [ 844412.66780000005383, 6902432.54009999986738 ], [ 844389.773200000054203, 6902411.636199999600649 ], [ 844349.641900000046007, 6902377.893799999728799 ], [ 844308.672099999967031, 6902342.819899999536574 ], [ 844258.938300000037998, 6902302.173999999649823 ], [ 844211.05980000004638, 6902263.791299999691546 ], [ 844210.978, 6902263.724399999715388 ], [ 844167.6814, 6902227.627299999818206 ], [ 844132.1851, 6902198.130300000309944 ], [ 844099.882100000046194, 6902171.293999999761581 ], [ 844076.550999999977648, 6902155.314899999648333 ], [ 844058.259899999946356, 6902145.637199999764562 ], [ 844041.019899999955669, 6902139.341699999757111 ], [ 844020.1054, 6902133.54839999973774 ], [ 844009.844700000016019, 6902131.417600000277162 ], [ 844009.701899999985471, 6902131.389399999752641 ], [ 844002.663999999989755, 6902129.981599999591708 ], [ 843982.595800000010058, 6902129.306300000287592 ], [ 843955.384500000043772, 6902131.172799999825656 ], [ 843921.26500000001397, 6902136.13219999987632 ], [ 843892.540799999958836, 6902141.119 ], [ 843892.213800000026822, 6902141.165699999779463 ], [ 843873.513799999956973, 6902143.26549999974668 ], [ 843873.051300000050105, 6902143.297899999655783 ], [ 843862.151300000026822, 6902143.597799999639392 ], [ 843862.0, 6902143.599899999797344 ], [ 843861.452700000023469, 6902143.572599999606609 ], [ 843854.452700000023469, 6902142.8728 ], [ 843854.044899999978952, 6902142.816499999724329 ], [ 843853.666100000031292, 6902142.73589999973774 ], [ 843842.843299999949522, 6902140.02309999987483 ], [ 843842.46909999998752, 6902139.924499999731779 ], [ 843841.91890000004787, 6902139.768299999646842 ], [ 843841.79480000003241, 6902139.714499999769032 ], [ 843835.808100000023842, 6902137.369400000199676 ], [ 843826.491999999969266, 6902133.720499999821186 ], [ 843825.75, 6902133.363099999725819 ], [ 843825.451099999947473, 6902133.177699999883771 ], [ 843822.567799999960698, 6902131.25719999987632 ], [ 843770.951099999947473, 6902096.877600000239909 ], [ 843770.572200000053272, 6902096.601099999621511 ], [ 843692.306699999957345, 6902034.228699999861419 ], [ 843662.359399999957532, 6902011.1694 ], [ 843662.162699999986216, 6902011.015999999828637 ], [ 843643.270600000047125, 6901996.677799999713898 ], [ 843624.491200000047684, 6901982.369699999690056 ], [ 843579.774300000048243, 6901952.160899999551475 ], [ 843546.9449, 6901933.0603 ], [ 843524.341499999980442, 6901920.04619999974966 ], [ 843512.173100000014529, 6901916.021999999880791 ], [ 843512.018900000024587, 6901915.968299999833107 ], [ 843511.389700000057928, 6901915.693699999712408 ], [ 843476.806600000010803, 6901897.953700000420213 ], [ 843429.3737, 6901876.420300000347197 ], [ 843399.629500000039116, 6901866.307199999690056 ], [ 843399.518900000024587, 6901866.268299999646842 ], [ 843399.43570000003092, 6901866.2374 ], [ 843389.3188, 6901862.368599999696016 ], [ 843389.252199999988079, 6901862.34360000025481 ], [ 843383.668799999984913, 6901860.249800000339746 ], [ 843383.209799999953248, 6901860.05350000038743 ], [ 843340.383000000030734, 6901839.388799999840558 ], [ 843303.369700000039302, 6901822.872100000269711 ], [ 843289.418599999975413, 6901817.369300000369549 ], [ 843289.301800000015646, 6901817.324199999682605 ], [ 843247.821499999961816, 6901801.331799999810755 ], [ 843247.631999999983236, 6901801.254599999636412 ], [ 843205.491700000013225, 6901783.1804 ], [ 843172.682000000029802, 6901770.01659999974072 ], [ 843136.629399999976158, 6901756.034900000318885 ], [ 843098.118800000054762, 6901741.468399999663234 ], [ 843098.054499999969266, 6901741.443699999712408 ], [ 843097.860699999961071, 6901741.3597999997437 ], [ 843060.257899999967776, 6901725.465699999593198 ], [ 843060.1677, 6901725.426599999889731 ], [ 843028.867699999944307, 6901711.526499999687076 ], [ 843028.739799999981187, 6901711.467799999751151 ], [ 843002.6398, 6901699.067800000309944 ], [ 843002.413399999961257, 6901698.95380000025034 ], [ 842956.847300000023097, 6901674.671900000423193 ], [ 842921.6849, 6901656.591199999675155 ], [ 842921.464700000011362, 6901656.471599999815226 ], [ 842905.884300000034273, 6901647.539200000464916 ], [ 842905.754599999985658, 6901647.466699999757111 ], [ 842902.184699999983422, 6901645.538499999791384 ], [ 842902.050000000046566, 6901645.463100000284612 ], [ 842901.827000000048429, 6901645.3273 ], [ 842881.12699999997858, 6901632.027200000360608 ], [ 842880.564699999988079, 6901631.613099999725819 ], [ 842880.1226, 6901631.198599999770522 ], [ 842871.6226, 6901622.2988 ], [ 842871.367699999944307, 6901622.012299999594688 ], [ 842862.648599999956787, 6901611.389399999752641 ], [ 842862.344000000040978, 6901610.980999999679625 ], [ 842843.6764, 6901583.376799999736249 ], [ 842832.107100000022911, 6901569.08530000038445 ], [ 842820.179699999978766, 6901557.157999999821186 ], [ 842803.906500000040978, 6901544.856100000441074 ], [ 842787.486900000018068, 6901534.887199999764562 ], [ 842766.477700000046752, 6901523.793399999849498 ], [ 842747.229500000015832, 6901515.995400000363588 ], [ 842723.434099999954924, 6901506.2972999997437 ], [ 842691.918300000019372, 6901493.569899999536574 ], [ 842691.743000000016764, 6901493.494699999690056 ], [ 842691.159600000013597, 6901493.220599999651313 ], [ 842691.049699999974109, 6901493.163800000213087 ], [ 842675.882499999948777, 6901484.857099999673665 ], [ 842628.0895, 6901532.377299999818206 ], [ 842606.309699999983422, 6901548.59389999974519 ], [ 842613.048799999989569, 6901550.324300000444055 ], [ 842627.733299999963492, 6901550.324300000444055 ], [ 842670.199000000022352, 6901540.799200000241399 ], [ 842678.5333999999566, 6901550.324300000444055 ], [ 842673.373999999952503, 6901564.214999999850988 ], [ 842656.70519999996759, 6901613.824400000274181 ], [ 842649.164499999955297, 6901620.968299999833107 ], [ 842613.445700000040233, 6901618.189899999648333 ], [ 842592.411300000036135, 6901614.221300000324845 ], [ 842567.805000000051223, 6901597.1557 ], [ 842555.7857, 6901586.212799999862909 ], [ 842375.264199999975972, 6901720.623999999836087 ], [ 842222.689999999944121, 6901825.970499999821186 ], [ 842232.841800000052899, 6901834.884200000204146 ], [ 842241.573100000037812, 6901835.28110000025481 ], [ 842260.226299999980256, 6901827.740299999713898 ], [ 842274.9107, 6901827.740299999713898 ], [ 842278.085700000054203, 6901833.693599999882281 ], [ 842242.366900000022724, 6901869.01549999974668 ], [ 842201.885499999974854, 6901895.606200000271201 ], [ 842162.594799999962561, 6901919.021999999880791 ], [ 842151.48230000003241, 6901928.546900000423193 ], [ 842136.004100000020117, 6901935.2939 ], [ 842116.557200000039302, 6901938.071899999864399 ], [ 842110.20719999994617, 6901919.815600000321865 ], [ 842117.00289999996312, 6901898.943099999800324 ], [ 841982.638799999956973, 6901991.716199999675155 ], [ 841978.430399999953806, 6901995.0817 ], [ 841962.224799999967217, 6902008.040699999779463 ], [ 841745.019300000043586, 6902181.731999999843538 ], [ 841544.353299999958836, 6902333.152099999599159 ], [ 841565.751000000047497, 6902328.396999999880791 ], [ 841581.2291, 6902329.190899999812245 ], [ 841591.5479, 6902331.175200000405312 ], [ 841585.197900000028312, 6902344.668999999761581 ], [ 841583.213499999954365, 6902364.909699999727309 ], [ 841596.7073, 6902368.878399999812245 ], [ 841634.807299999985844, 6902366.497100000269711 ], [ 841637.1886, 6902374.831500000320375 ], [ 841621.3136, 6902388.325299999676645 ], [ 841591.5479, 6902397.056599999777973 ], [ 841570.910299999988638, 6902413.725399999879301 ], [ 841573.688500000047497, 6902430.791000000201166 ], [ 841579.64159999997355, 6902445.078499999828637 ], [ 841600.2791000000434, 6902465.716099999845028 ], [ 841597.501000000047497, 6902472.462899999693036 ], [ 841489.550799999968149, 6902486.353699999861419 ], [ 841442.050500000012107, 6902502.917899999767542 ], [ 841434.769199999980628, 6902483.298600000329316 ], [ 841419.29500000004191, 6902486.088999999687076 ], [ 841354.7365, 6902480.7972999997437 ], [ 841340.449000000022352, 6902473.9183 ], [ 841297.057200000039302, 6902504.6097999997437 ], [ 841310.890600000042468, 6902531.119699999690056 ], [ 841366.657800000044517, 6902608.548899999819696 ], [ 841402.5723, 6902658.413800000213087 ], [ 841440.7624, 6902708.436499999836087 ], [ 841500.54680000001099, 6902786.744 ], [ 841566.412999999942258, 6902873.0176 ], [ 841604.204799999948591, 6902922.518400000408292 ], [ 841639.673100000014529, 6902977.626299999654293 ], [ 841673.48230000003241, 6903030.156600000336766 ], [ 841770.6997, 6903151.213499999605119 ], [ 841881.719700000016019, 6903289.457600000314415 ], [ 842193.070300000021234, 6903727.31180000025779 ], [ 842537.29949999996461, 6904235.139999999664724 ], [ 842537.704400000046007, 6904236.244 ], [ 842650.45070000004489, 6904298.7027000002563 ], [ 842652.959200000041164, 6904300.092299999669194 ], [ 842858.224599999957718, 6904347.9315 ], [ 843080.240899999975227, 6904337.404299999587238 ], [ 843133.869599999976344, 6904304.599100000225008 ] ], [ [ 842928.697399999946356, 6904151.29619999974966 ], [ 842948.845699999947101, 6904137.666299999691546 ], [ 842974.338100000051782, 6904151.957399999722838 ], [ 842998.1507, 6904162.54079999960959 ], [ 843008.072599999955855, 6904175.10869999974966 ], [ 843010.056899999966845, 6904190.322200000286102 ], [ 843004.765299999970011, 6904200.9057 ], [ 842993.520400000037625, 6904214.79619999974966 ], [ 842997.489199999952689, 6904231.3328 ], [ 843012.702799999970011, 6904253.8224 ], [ 843029.239300000015646, 6904269.697499999776483 ], [ 843030.562200000043958, 6904292.18709999974817 ], [ 843016.010099999955855, 6904292.18709999974817 ], [ 842982.937099999981001, 6904289.541199999861419 ], [ 842967.723499999963678, 6904275.650399999693036 ], [ 842974.999599999981001, 6904259.775399999693036 ], [ 842973.676699999952689, 6904245.8849 ], [ 842959.124500000034459, 6904224.7182 ], [ 842937.2964, 6904205.535799999721348 ], [ 842904.223400000017136, 6904203.551400000229478 ], [ 842889.0098, 6904197.598299999721348 ], [ 842889.671300000045449, 6904183.707600000314415 ], [ 842920.098400000017136, 6904168.494099999777973 ], [ 842928.697399999946356, 6904151.29619999974966 ] ], [ [ 842607.201499999966472, 6903996.607099999673665 ], [ 842658.001599999959581, 6903966.44469999987632 ], [ 842670.17249999998603, 6903975.969499999657273 ], [ 842691.339200000045821, 6903999.781999999657273 ], [ 842731.555999999982305, 6904032.061499999836087 ], [ 842787.647699999972247, 6904074.394799999892712 ], [ 842787.647699999972247, 6904086.565600000321865 ], [ 842776.006000000052154, 6904089.211500000208616 ], [ 842740.022600000025705, 6904088.153099999763072 ], [ 842672.818300000042655, 6904070.161299999803305 ], [ 842644.772499999962747, 6904057.461400000378489 ], [ 842599.793199999956414, 6904039.469700000248849 ], [ 842577.1346, 6904017.288099999539554 ], [ 842583.388999999966472, 6904010.894799999892712 ], [ 842607.201499999966472, 6903996.607099999673665 ] ], [ [ 843316.958800000022165, 6903971.46059999987483 ], [ 843311.667099999962375, 6903958.760599999688566 ], [ 843336.537999999942258, 6903937.59389999974519 ], [ 843371.463100000051782, 6903916.956299999728799 ], [ 843446.604900000034831, 6903896.848000000230968 ], [ 843450.8382, 6903900.552199999801815 ], [ 843454.542400000034831, 6903912.723000000230968 ], [ 843452.425700000021607, 6903924.893799999728799 ], [ 843440.783999999985099, 6903938.122999999672174 ], [ 843434.434, 6903956.643799999728799 ], [ 843414.325599999981932, 6903966.168999999761581 ], [ 843346.852300000027753, 6903993.734299999661744 ], [ 843316.958800000022165, 6903971.46059999987483 ] ], [ [ 844456.945900000049733, 6903490.286299999803305 ], [ 844451.786500000045635, 6903482.745699999853969 ], [ 844422.814600000041537, 6903477.189299999736249 ], [ 844410.114599999971688, 6903480.761099999770522 ], [ 844399.795799999963492, 6903486.7144 ], [ 844393.445799999986775, 6903486.317499999888241 ], [ 844385.111400000052527, 6903475.601800000295043 ], [ 844348.040799999958836, 6903473.978199999779463 ], [ 844335.501900000032037, 6903445.042399999685585 ], [ 844363.283199999947101, 6903392.257799999788404 ], [ 844366.0614, 6903377.970499999821186 ], [ 844366.855100000044331, 6903352.17339999973774 ], [ 844402.573899999959394, 6903364.476599999703467 ], [ 844463.692799999960698, 6903395.036000000312924 ], [ 844497.427200000034645, 6903404.957899999804795 ], [ 844541.480499999946915, 6903403.370400000363588 ], [ 844548.624199999962002, 6903408.132799999788404 ], [ 844559.7367, 6903412.498599999584258 ], [ 844570.055500000016764, 6903411.704800000414252 ], [ 844588.708699999959208, 6903411.704800000414252 ], [ 844622.046199999982491, 6903376.382799999788404 ], [ 844659.749399999971502, 6903378.367200000211596 ], [ 844672.052600000053644, 6903371.223500000312924 ], [ 844697.849500000011176, 6903354.554700000211596 ], [ 844730.790200000046752, 6903341.457899999804795 ], [ 844755.396500000031665, 6903366.4611 ], [ 844754.205899999942631, 6903374.0017 ], [ 844720.471400000038557, 6903399.004800000227988 ], [ 844716.50269999995362, 6903393.448599999770522 ], [ 844696.658900000038557, 6903383.92339999973774 ], [ 844679.990100000053644, 6903393.448599999770522 ], [ 844679.5932, 6903410.11739999987185 ], [ 844687.927600000053644, 6903432.342299999669194 ], [ 844676.8151, 6903442.2643 ], [ 844662.130699999979697, 6903442.6612 ], [ 844629.983800000045449, 6903430.754800000227988 ], [ 844609.743099999963306, 6903429.564299999736249 ], [ 844608.155600000056438, 6903439.88289999961853 ], [ 844614.108699999982491, 6903460.123700000345707 ], [ 844605.377499999944121, 6903469.648699999786913 ], [ 844592.677400000044145, 6903479.967299999669194 ], [ 844585.136799999978393, 6903477.586199999786913 ], [ 844564.499300000024959, 6903464.489199999719858 ], [ 844551.005499999970198, 6903462.9019 ], [ 844514.8898, 6903478.379999999888241 ], [ 844506.158500000019558, 6903476.792399999685585 ], [ 844497.824099999968894, 6903466.473799999803305 ], [ 844487.108499999972992, 6903466.473799999803305 ], [ 844476.789699999964796, 6903479.967299999669194 ], [ 844467.6616, 6903492.667500000447035 ], [ 844456.945900000049733, 6903490.286299999803305 ] ], [ [ 843349.748400000040419, 6903088.218000000342727 ], [ 843194.305399999953806, 6903031.994 ], [ 843195.628299999982119, 6903013.473000000230968 ], [ 843218.7794, 6902969.155299999751151 ], [ 843237.961800000048243, 6902957.248999999836087 ], [ 843362.977599999983795, 6903001.566700000315905 ], [ 843400.680799999972805, 6903029.348199999891222 ], [ 843432.430900000035763, 6903034.6398 ], [ 843488.65500000002794, 6903057.129499999806285 ], [ 843494.608099999953993, 6903075.650299999862909 ], [ 843472.779899999964982, 6903129.228500000201166 ], [ 843472.118499999982305, 6903139.81180000025779 ], [ 843573.321800000034273, 6903174.2078 ], [ 843604.410400000051595, 6903190.0828 ], [ 843615.655200000037439, 6903203.312 ], [ 843580.597900000051595, 6903213.23369999974966 ], [ 843542.23320000001695, 6903209.926599999889731 ], [ 843472.779899999964982, 6903204.634999999776483 ], [ 843461.535099999979138, 6903201.989099999889731 ], [ 843420.5246, 6903182.1453 ], [ 843387.45160000002943, 6903172.223299999721348 ], [ 843351.7328, 6903159.6557 ], [ 843340.7844, 6903152.099600000306964 ], [ 843321.305700000026263, 6903131.212799999862909 ], [ 843342.472399999969639, 6903100.124099999666214 ], [ 843349.748400000040419, 6903088.218000000342727 ] ], [ [ 842473.756799999973737, 6902987.95299999974668 ], [ 842476.618600000045262, 6902990.142900000326335 ], [ 842479.49, 6902989.886900000274181 ], [ 842482.43550000002142, 6902991.940600000321865 ], [ 842486.252300000051036, 6902993.603199999779463 ], [ 842484.265099999960512, 6902997.234400000423193 ], [ 842484.640600000042468, 6903001.42989999987185 ], [ 842480.6089, 6903002.949799999594688 ], [ 842475.354900000034831, 6903003.954599999822676 ], [ 842472.559099999954924, 6903007.973899999633431 ], [ 842474.556899999966845, 6903011.485299999825656 ], [ 842466.746599999954924, 6903018.060100000351667 ], [ 842461.778799999970943, 6903019.233099999837577 ], [ 842453.8234, 6903026.166299999691546 ], [ 842450.763799999956973, 6903028.117200000211596 ], [ 842444.947700000018813, 6903032.318 ], [ 842442.872699999948964, 6903031.183199999853969 ], [ 842440.337300000013784, 6903030.079300000332296 ], [ 842435.811299999943003, 6903024.916199999861419 ], [ 842432.810900000040419, 6903023.273699999786913 ], [ 842429.080300000030547, 6903021.647599999792874 ], [ 842424.446, 6903016.14159999974072 ], [ 842422.619900000048801, 6903012.142900000326335 ], [ 842420.63, 6903010.459599999710917 ], [ 842418.875600000028498, 6903008.458200000226498 ], [ 842414.840399999986403, 6903007.279699999839067 ], [ 842413.652, 6903003.449300000444055 ], [ 842409.60640000004787, 6902997.845499999821186 ], [ 842412.5063, 6902995.463600000366569 ], [ 842415.565900000045076, 6902993.512699999846518 ], [ 842420.214099999982864, 6902990.1557 ], [ 842431.48699999996461, 6902985.381099999882281 ], [ 842437.6252, 6902980.032599999569356 ], [ 842441.4205, 6902978.2999 ], [ 842445.521700000041164, 6902975.33669999986887 ], [ 842451.38, 6902974.216900000348687 ], [ 842453.334000000031665, 6902973.103199999779463 ], [ 842456.196400000015274, 6902975.096099999733269 ], [ 842457.363600000040606, 6902975.908800000324845 ], [ 842460.789800000027753, 6902974.616399999707937 ], [ 842462.29390000004787, 6902974.0494 ], [ 842466.3615, 6902973.089200000278652 ], [ 842468.100699999951757, 6902971.03139999974519 ], [ 842470.7977, 6902970.51549999974668 ], [ 842471.331600000034086, 6902972.23450000025332 ], [ 842473.770000000018626, 6902974.299499999731779 ], [ 842471.9057, 6902977.709800000302494 ], [ 842476.241799999959767, 6902985.323599999770522 ], [ 842473.658199999947101, 6902987.589499999769032 ], [ 842473.483, 6902987.743300000205636 ], [ 842473.756799999973737, 6902987.95299999974668 ] ], [ [ 842459.581400000024587, 6902933.103500000201166 ], [ 842432.197000000043772, 6902908.4973 ], [ 842423.8626, 6902908.4973 ], [ 842411.162499999976717, 6902915.244099999777973 ], [ 842386.953100000042468, 6902892.622100000269711 ], [ 842371.474999999976717, 6902876.747100000269711 ], [ 842392.906300000031479, 6902854.918999999761581 ], [ 842388.9375, 6902843.409599999897182 ], [ 842368.696800000034273, 6902829.915699999779463 ], [ 842386.953100000042468, 6902816.818900000303984 ], [ 842403.224999999976717, 6902797.371899999678135 ], [ 842426.243800000054762, 6902774.750099999830127 ], [ 842445.690700000035577, 6902764.82799999974668 ], [ 842453.23140000004787, 6902764.431300000287592 ], [ 842453.23140000004787, 6902781.893799999728799 ], [ 842442.912600000039674, 6902800.943799999542534 ], [ 842421.084400000050664, 6902819.597099999897182 ], [ 842418.70319999998901, 6902832.693900000303984 ], [ 842429.815700000035577, 6902841.425200000405312 ], [ 842438.150099999969825, 6902854.125199999660254 ], [ 842451.246999999973923, 6902860.475200000219047 ], [ 842470.297000000020489, 6902863.650299999862909 ], [ 842485.378299999982119, 6902874.365899999625981 ], [ 842511.969000000040978, 6902896.591 ], [ 842523.478400000021793, 6902895.400299999862909 ], [ 842554.831600000034086, 6902882.700199999846518 ], [ 842565.150299999979325, 6902885.47829999960959 ], [ 842561.181600000010803, 6902897.384600000455976 ], [ 842551.7045, 6902915.758600000292063 ], [ 842538.956499999971129, 6902918.418999999761581 ], [ 842511.175200000056066, 6902922.784699999727309 ], [ 842469.900200000032783, 6902937.072200000286102 ], [ 842459.581400000024587, 6902933.103500000201166 ] ], [ [ 843170.002300000051036, 6902848.2736 ], [ 843151.48140000004787, 6902823.402599999681115 ], [ 843144.602199999964796, 6902818.11089999973774 ], [ 843080.043799999984913, 6902811.231599999591708 ], [ 843056.760400000028312, 6902811.231599999591708 ], [ 843035.06449999997858, 6902829.752600000239909 ], [ 842963.626900000032037, 6902827.1069 ], [ 842967.331, 6902798.5318 ], [ 842994.3186, 6902782.6568 ], [ 843108.618800000054762, 6902728.152499999850988 ], [ 843135.60640000004787, 6902728.152499999850988 ], [ 843156.2439, 6902725.506699999794364 ], [ 843193.2857, 6902714.9233 ], [ 843210.74820000003092, 6902709.6316 ], [ 843248.848299999954179, 6902709.102400000207126 ], [ 843313.935900000040419, 6902706.9858 ], [ 843334.044299999950454, 6902708.573200000450015 ], [ 843344.098499999963678, 6902725.506699999794364 ], [ 843389.606900000013411, 6902733.444199999794364 ], [ 843438.819499999983236, 6902733.444199999794364 ], [ 843447.815300000016578, 6902739.793999999761581 ], [ 843400.049899999983609, 6902788.355499999597669 ], [ 843377.965199999976903, 6902785.831799999810755 ], [ 843340.923500000033528, 6902786.889999999664724 ], [ 843301.23589999997057, 6902798.5318 ], [ 843258.902499999967404, 6902804.35259999986738 ], [ 843223.448199999984354, 6902804.881699999794364 ], [ 843218.68570000003092, 6902816.523400000296533 ], [ 843207.044, 6902836.10259999986738 ], [ 843201.7524, 6902853.036000000312924 ], [ 843181.114799999981187, 6902855.152599999681115 ], [ 843170.002300000051036, 6902848.2736 ] ], [ [ 842290.5233, 6902726.628899999894202 ], [ 842252.423199999961071, 6902732.449699999764562 ], [ 842232.844000000040978, 6902749.9123 ], [ 842211.677299999981187, 6902770.5499 ], [ 842198.977300000027753, 6902798.066499999724329 ], [ 842212.206499999971129, 6902814.470599999651313 ], [ 842251.364900000044145, 6902811.295699999667704 ], [ 842271.473299999954179, 6902823.4666 ], [ 842265.652400000020862, 6902833.520700000226498 ], [ 842250.306600000010803, 6902850.45409999974072 ], [ 842175.693899999954738, 6902825.053899999707937 ], [ 842147.648000000044703, 6902811.824699999764562 ], [ 842079.385400000028312, 6902770.5499 ], [ 842028.056100000045262, 6902755.733099999837577 ], [ 841969.318500000052154, 6902744.091400000266731 ], [ 841919.047600000048988, 6902724.512199999764562 ], [ 841909.522600000025705, 6902710.753899999894202 ], [ 841926.455899999942631, 6902686.941399999894202 ], [ 841940.743499999982305, 6902683.76630000025034 ], [ 841963.497699999948964, 6902682.17879999987781 ], [ 842018.531100000021979, 6902658.36629999987781 ], [ 842053.456200000015087, 6902670.537100000306964 ], [ 842077.268700000015087, 6902696.466199999675155 ], [ 842089.968800000031479, 6902699.111999999731779 ], [ 842116.427099999971688, 6902699.111999999731779 ], [ 842137.064699999988079, 6902692.762199999764562 ], [ 842149.235499999951571, 6902683.236999999731779 ], [ 842160.348099999944679, 6902672.12459999974817 ], [ 842205.3273, 6902672.653699999675155 ], [ 842220.673199999961071, 6902683.236999999731779 ], [ 842243.956600000034086, 6902688.528699999675155 ], [ 842320.156700000050478, 6902676.358 ], [ 842352.435900000040419, 6902680.591199999675155 ], [ 842410.701499999966472, 6902670.843399999663234 ], [ 842405.352700000046752, 6902691.70380000025034 ], [ 842340.265099999960512, 6902699.111999999731779 ], [ 842314.865, 6902714.986999999731779 ], [ 842290.5233, 6902726.628899999894202 ] ], [ [ 843880.365899999975227, 6902680.483199999667704 ], [ 843879.836699999985285, 6902665.666500000283122 ], [ 843873.4867, 6902649.791500000283122 ], [ 843845.440799999982119, 6902642.383100000210106 ], [ 843815.278199999942444, 6902632.329 ], [ 843828.5074, 6902613.808199999853969 ], [ 843861.315799999982119, 6902598.462299999780953 ], [ 843889.8909, 6902593.170599999837577 ], [ 843907.353400000021793, 6902602.166400000452995 ], [ 843921.6409, 6902608.5165 ], [ 843926.932599999941885, 6902618.570600000210106 ], [ 843933.811800000024959, 6902627.566499999724329 ], [ 843944.92429999995511, 6902626.508100000210106 ], [ 843973.4878, 6902603.854299999773502 ], [ 843975.616099999984726, 6902602.166400000452995 ], [ 843945.453499999945052, 6902515.911999999545515 ], [ 843980.378600000054576, 6902498.978699999861419 ], [ 843999.428599999984726, 6902496.861999999731779 ], [ 844020.066100000054576, 6902504.799499999731779 ], [ 844041.232899999944493, 6902507.445299999788404 ], [ 844053.403700000024401, 6902503.212000000290573 ], [ 844085.153799999970943, 6902489.453700000420213 ], [ 844108.437200000043958, 6902492.628700000233948 ], [ 844186.753999999957159, 6902454.528599999845028 ], [ 844230.546500000054948, 6902436.089599999599159 ], [ 844241.258299999986775, 6902448.178600000217557 ], [ 844276.183300000033341, 6902470.403599999845028 ], [ 844271.949999999953434, 6902480.457899999804795 ], [ 844225.383200000040233, 6902514.853699999861419 ], [ 844169.820599999977276, 6902546.603799999691546 ], [ 844157.649699999950826, 6902563.00789999961853 ], [ 844168.762299999943934, 6902581.528699999675155 ], [ 844180.212900000042282, 6902588.264399999752641 ], [ 844195.7498, 6902597.403900000266731 ], [ 844221.679, 6902604.283099999651313 ], [ 844319.575100000016391, 6902567.770499999634922 ], [ 844346.562599999946542, 6902565.12459999974817 ], [ 844351.8543, 6902568.82880000025034 ], [ 844352.912600000039674, 6902580.999699999578297 ], [ 844341.270999999949709, 6902596.345499999821186 ], [ 844327.512600000016391, 6902663.020700000226498 ], [ 844322.750099999946542, 6902677.83739999961108 ], [ 844298.4083999999566, 6902681.541500000283122 ], [ 844297.349999999976717, 6902680.483199999667704 ], [ 844284.650000000023283, 6902667.783099999651313 ], [ 844271.949999999953434, 6902653.495699999853969 ], [ 844200.512299999943934, 6902623.8624 ], [ 844179.8748, 6902630.212299999780953 ], [ 844127.487199999974109, 6902624.3915 ], [ 844111.612199999974109, 6902636.562300000339746 ], [ 844083.56629999994766, 6902650.849899999797344 ], [ 844031.707799999974668, 6902655.6124 ], [ 844017.4203, 6902667.783099999651313 ], [ 844015.354999999981374, 6902669.2807 ], [ 843996.253600000054576, 6902683.128999999724329 ], [ 843975.0869, 6902676.25 ], [ 843956.566, 6902669.89989999961108 ], [ 843926.932599999941885, 6902675.191499999724329 ], [ 843883.540900000021793, 6902687.89159999974072 ], [ 843880.365899999975227, 6902680.483199999667704 ] ], [ [ 843900.7829, 6902458.276999999769032 ], [ 843844.691100000054576, 6902459.335199999623001 ], [ 843806.061899999971502, 6902447.164300000295043 ], [ 843729.332599999965169, 6902453.514399999752641 ], [ 843685.940799999982119, 6902494.260300000198185 ], [ 843672.1825, 6902501.668600000441074 ], [ 843626.144899999955669, 6902512.78110000025481 ], [ 843607.623999999952503, 6902523.893799999728799 ], [ 843595.98230000003241, 6902519.131099999882281 ], [ 843584.3406, 6902499.02280000038445 ], [ 843586.9865, 6902481.03110000025481 ], [ 843577.990600000019185, 6902474.151999999769032 ], [ 843555.236400000052527, 6902470.447599999606609 ], [ 843520.84050000004936, 6902472.035199999809265 ], [ 843502.848800000036135, 6902465.6853 ], [ 843479.56539999996312, 6902468.860299999825656 ], [ 843466.336200000019744, 6902452.985299999825656 ], [ 843459.457000000053085, 6902440.814299999736249 ], [ 843456.282, 6902425.468399999663234 ], [ 843450.9904, 6902412.768400000408292 ], [ 843465.4118, 6902378.343000000342727 ], [ 843475.861200000043027, 6902372.287100000306964 ], [ 843502.451899999985471, 6902358.396499999798834 ], [ 843529.43949999997858, 6902331.805800000205636 ], [ 843549.9447, 6902335.509999999776483 ], [ 843546.240499999956228, 6902360.9101 ], [ 843546.240499999956228, 6902375.197499999776483 ], [ 843553.648900000029244, 6902381.547500000335276 ], [ 843584.3406, 6902367.259999999776483 ], [ 843596.511500000022352, 6902370.434999999590218 ], [ 843597.040599999949336, 6902382.0768 ], [ 843576.932299999985844, 6902395.835099999792874 ], [ 843575.344799999962561, 6902410.122600000351667 ], [ 843584.3406, 6902420.705900000408292 ], [ 843598.099000000045635, 6902421.2352 ], [ 843613.974000000045635, 6902418.060100000351667 ], [ 843619.794899999978952, 6902428.643500000238419 ], [ 843624.028199999942444, 6902442.4019 ], [ 843637.2574, 6902441.343399999663234 ], [ 843669.007499999948777, 6902422.822499999776483 ], [ 843688.586699999985285, 6902422.293499999679625 ], [ 843703.9325, 6902410.122600000351667 ], [ 843725.628400000045076, 6902399.539200000464916 ], [ 843775.3702, 6902385.780899999663234 ], [ 843834.636999999987893, 6902391.601700000464916 ], [ 843897.078699999954551, 6902411.18099999986589 ], [ 843934.649699999950826, 6902431.818599999882281 ], [ 843936.766300000017509, 6902441.8728 ], [ 843927.2413, 6902446.635099999606609 ], [ 843900.7829, 6902458.276999999769032 ] ], [ [ 842992.38710000005085, 6902466.3909 ], [ 842981.8038, 6902489.541799999773502 ], [ 842965.267299999948591, 6902506.0784 ], [ 842949.392299999948591, 6902512.031499999575317 ], [ 842898.459900000016205, 6902508.724299999885261 ], [ 842860.756700000027195, 6902500.125199999660254 ], [ 842853.4806, 6902493.510599999688566 ], [ 842813.131599999964237, 6902414.135499999858439 ], [ 842808.785999999963678, 6902404.202600000426173 ], [ 842954.022499999962747, 6902269.937199999578297 ], [ 842983.126700000022538, 6902271.260099999606609 ], [ 842979.819400000036694, 6902297.71860000025481 ], [ 842965.9288, 6902320.208200000226498 ], [ 842980.480899999965914, 6902328.807199999690056 ], [ 843006.93929999996908, 6902338.067599999718368 ], [ 843006.93929999996908, 6902351.958200000226498 ], [ 843019.506999999983236, 6902369.1563 ], [ 843019.506999999983236, 6902387.01549999974668 ], [ 843012.230899999965914, 6902408.84389999974519 ], [ 843013.553900000057183, 6902436.625099999830127 ], [ 843002.309, 6902451.177199999801815 ], [ 842992.38710000005085, 6902466.3909 ] ], [ [ 842927.114300000015646, 6902096.136599999852479 ], [ 842952.2498, 6902080.922899999655783 ], [ 842964.155999999959022, 6902058.433299999684095 ], [ 842982.015499999979511, 6902043.219700000248849 ], [ 842998.551899999962188, 6902020.730100000277162 ], [ 843001.197799999965355, 6902001.547799999825656 ], [ 842962.833100000047125, 6901996.917600000277162 ], [ 842929.760099999955855, 6901984.349899999797344 ], [ 842872.2132, 6901989.64159999974072 ], [ 842859.645400000037625, 6902025.360299999825656 ], [ 842835.832900000037625, 6902041.235399999655783 ], [ 842814.666199999977835, 6902039.2511 ], [ 842800.775499999988824, 6902016.099899999797344 ], [ 842788.869199999957345, 6902003.532200000248849 ], [ 842746.535799999954179, 6902020.730100000277162 ], [ 842737.275400000042282, 6902039.912399999797344 ], [ 842755.796300000045449, 6902071.662399999797344 ], [ 842747.1973, 6902084.2303 ], [ 842709.494100000010803, 6902074.308299999684095 ], [ 842690.311699999962002, 6902049.172899999655783 ], [ 842683.6971, 6902025.360299999825656 ], [ 842694.2805, 6902010.808199999853969 ], [ 842744.5514, 6901990.964499999769032 ], [ 842814.004700000048615, 6901971.120699999853969 ], [ 842940.343499999959022, 6901949.954 ], [ 843056.098899999982677, 6901924.156999999657273 ], [ 843065.359399999957532, 6901961.860299999825656 ], [ 843034.932200000039302, 6901992.948699999600649 ], [ 843019.718699999968521, 6902040.574 ], [ 843009.135299999965355, 6902096.136599999852479 ], [ 842993.921699999948032, 6902113.995799999684095 ], [ 842970.770600000047125, 6902177.4962 ], [ 842957.541399999987334, 6902206.600399999879301 ], [ 842948.280999999959022, 6902213.214999999850988 ], [ 842920.499700000043958, 6902199.9858 ], [ 842878.827700000023469, 6902181.4649 ], [ 842856.8506, 6902150.250900000333786 ], [ 842867.582900000037625, 6902143.761599999852479 ], [ 842878.827700000023469, 6902141.777200000360608 ], [ 842895.364199999952689, 6902131.193900000303984 ], [ 842911.239300000015646, 6902110.027200000360608 ], [ 842927.114300000015646, 6902096.136599999852479 ] ], [ [ 843677.4499, 6902131.277599999681115 ], [ 843670.041500000050291, 6902107.465099999681115 ], [ 843638.291500000050291, 6902084.181699999608099 ], [ 843618.712300000013784, 6902094.23589999973774 ], [ 843584.845500000054017, 6902115.931800000369549 ], [ 843577.9664000000339, 6902109.581799999810755 ], [ 843571.6163, 6902081.535899999551475 ], [ 843579.024699999950826, 6902070.952499999664724 ], [ 843561.562200000043958, 6902062.48589999973774 ], [ 843524.520400000037625, 6902066.7193 ], [ 843513.937099999981001, 6902060.369199999608099 ], [ 843505.4704, 6902050.8443 ], [ 843512.349599999957718, 6902037.085699999704957 ], [ 843512.8787, 6902025.973299999721348 ], [ 843553.624599999981001, 6902012.214999999850988 ], [ 843579.024699999950826, 6902007.452399999834597 ], [ 843608.6581, 6902005.864900000393391 ], [ 843626.586699999985285, 6902003.767 ], [ 843644.641500000027008, 6902014.86089999973774 ], [ 843641.995600000023842, 6902037.085699999704957 ], [ 843639.878999999957159, 6902054.54839999973774 ], [ 843648.345699999947101, 6902068.835900000296533 ], [ 843669.5124, 6902071.481599999591708 ], [ 843728.779199999989942, 6902069.894299999810755 ], [ 843773.229199999943376, 6902109.052699999883771 ], [ 843773.758400000049733, 6902121.223500000312924 ], [ 843694.912400000030175, 6902146.094399999827147 ], [ 843687.504100000020117, 6902146.094399999827147 ], [ 843677.4499, 6902131.277599999681115 ] ], [ [ 842640.2084, 6901989.427699999883771 ], [ 842620.364599999971688, 6902001.730899999849498 ], [ 842608.458300000056624, 6902000.93709999974817 ], [ 842583.455100000021048, 6901998.9527000002563 ], [ 842562.023900000029244, 6901995.777599999681115 ], [ 842539.005099999951199, 6901982.680800000205636 ], [ 842529.876900000032037, 6901956.486999999731779 ], [ 842516.78000000002794, 6901950.930700000375509 ], [ 842475.9018, 6901963.630599999800324 ], [ 842461.614300000015646, 6901953.7089 ], [ 842463.201800000038929, 6901944.183799999766052 ], [ 842492.570599999977276, 6901922.752399999648333 ], [ 842516.383099999977276, 6901900.527499999850988 ], [ 842530.273799999966286, 6901895.764999999664724 ], [ 842538.60820000001695, 6901905.29009999986738 ], [ 842546.148799999966286, 6901907.274299999698997 ], [ 842584.4007, 6901903.680200000293553 ], [ 842584.645800000056624, 6901910.052500000223517 ], [ 842580.677000000025146, 6901918.783699999563396 ], [ 842565.198899999959394, 6901935.452499999664724 ], [ 842564.405099999974482, 6901942.199400000274181 ], [ 842633.85840000002645, 6901972.361999999731779 ], [ 842645.3678, 6901980.696399999782443 ], [ 842640.2084, 6901989.427699999883771 ] ], [ [ 842769.907400000025518, 6901783.927699999883771 ], [ 842757.7365, 6901777.04839999973774 ], [ 842741.8615, 6901773.873499999754131 ], [ 842716.990600000019185, 6901778.636 ], [ 842669.707000000053085, 6901751.684299999848008 ], [ 842677.9645, 6901735.640999999828637 ], [ 842712.095800000010058, 6901728.8942 ], [ 842727.177099999971688, 6901717.384700000286102 ], [ 842721.620800000033341, 6901705.875199999660254 ], [ 842672.011399999959394, 6901687.222199999727309 ], [ 842680.345800000010058, 6901664.203499999828637 ], [ 842675.1864, 6901650.312699999660254 ], [ 842679.552000000025146, 6901643.565899999812245 ], [ 842723.208300000056624, 6901665.79079999960959 ], [ 842731.1459, 6901668.1722 ], [ 842750.592799999983981, 6901661.822100000455976 ], [ 842762.498999999952503, 6901670.156499999575317 ], [ 842766.467799999983981, 6901683.253399999812245 ], [ 842783.136599999968894, 6901691.9847999997437 ], [ 842788.692799999960698, 6901704.6848 ], [ 842801.789699999964796, 6901737.228500000201166 ], [ 842804.964799999957904, 6901749.1349 ], [ 842796.630400000023656, 6901753.103500000201166 ], [ 842788.957399999955669, 6901772.814899999648333 ], [ 842787.369900000048801, 6901782.340099999681115 ], [ 842769.907400000025518, 6901783.927699999883771 ] ] ] ] } }
]
}
