{
"type": "FeatureCollection",
"name": "samples_02",
"crs": { "type": "name", "properties": { "name": "urn:ogc:def:crs:EPSG::3035" } },
"features": [
{ "type": "Feature", "properties": { "id": 1, "SAMPLE_1": 18437 }, "geometry": { "type": "Point", "coordinates": [ 3953934.42450000019744, 2913558.8427 ] } },
{ "type": "Feature", "properties": { "id": 2, "SAMPLE_1": 18437 }, "geometry": { "type": "Point", "coordinates": [ 3954234.42450000019744, 2913558.8427 ] } },
{ "type": "Feature", "properties": { "id": 3, "SAMPLE_1": 18414 }, "geometry": { "type": "Point", "coordinates": [ 3954434.42450000019744, 2913558.8427 ] } },
{ "type": "Feature", "properties": { "id": 4, "SAMPLE_1": 18437 }, "geometry": { "type": "Point", "coordinates": [ 3955234.42450000019744, 2913058.8427 ] } },
{ "type": "Feature", "properties": { "id": 5, "SAMPLE_1": 18232 }, "geometry": { "type": "Point", "coordinates": [ 3954534.42450000019744, 2912958.8427 ] } },
{ "type": "Feature", "properties": { "id": 6, "SAMPLE_1": 18299 }, "geometry": { "type": "Point", "coordinates": [ 3954834.42450000019744, 2912858.8427 ] } },
{ "type": "Feature", "properties": { "id": 7, "SAMPLE_1": 18437 }, "geometry": { "type": "Point", "coordinates": [ 3955234.42450000019744, 2912858.8427 ] } },
{ "type": "Feature", "properties": { "id": 8, "SAMPLE_1": 18437 }, "geometry": { "type": "Point", "coordinates": [ 3955234.42450000019744, 2912758.8427 ] } },
{ "type": "Feature", "properties": { "id": 9, "SAMPLE_1": 18389 }, "geometry": { "type": "Point", "coordinates": [ 3955634.42450000019744, 2912758.8427 ] } },
{ "type": "Feature", "properties": { "id": 10, "SAMPLE_1": 18349 }, "geometry": { "type": "Point", "coordinates": [ 3953434.42450000019744, 2912658.8427 ] } },
{ "type": "Feature", "properties": { "id": 11, "SAMPLE_1": 18349 }, "geometry": { "type": "Point", "coordinates": [ 3955134.42450000019744, 2912658.8427 ] } },
{ "type": "Feature", "properties": { "id": 12, "SAMPLE_1": 18132 }, "geometry": { "type": "Point", "coordinates": [ 3955734.42450000019744, 2912658.8427 ] } },
{ "type": "Feature", "properties": { "id": 13, "SAMPLE_1": 18337 }, "geometry": { "type": "Point", "coordinates": [ 3954534.42450000019744, 2912558.8427 ] } },
{ "type": "Feature", "properties": { "id": 14, "SAMPLE_1": 18234 }, "geometry": { "type": "Point", "coordinates": [ 3954734.42450000019744, 2912558.8427 ] } },
{ "type": "Feature", "properties": { "id": 15, "SAMPLE_1": 18437 }, "geometry": { "type": "Point", "coordinates": [ 3954934.42450000019744, 2912558.8427 ] } },
{ "type": "Feature", "properties": { "id": 16, "SAMPLE_1": 18049 }, "geometry": { "type": "Point", "coordinates": [ 3953534.42450000019744, 2912458.8427 ] } },
{ "type": "Feature", "properties": { "id": 17, "SAMPLE_1": 18399 }, "geometry": { "type": "Point", "coordinates": [ 3953834.42450000019744, 2912458.8427 ] } },
{ "type": "Feature", "properties": { "id": 18, "SAMPLE_1": 18337 }, "geometry": { "type": "Point", "coordinates": [ 3952734.42450000019744, 2912258.8427 ] } },
{ "type": "Feature", "properties": { "id": 19, "SAMPLE_1": 18414 }, "geometry": { "type": "Point", "coordinates": [ 3954234.42450000019744, 2912258.8427 ] } },
{ "type": "Feature", "properties": { "id": 20, "SAMPLE_1": 18437 }, "geometry": { "type": "Point", "coordinates": [ 3954334.42450000019744, 2912258.8427 ] } },
{ "type": "Feature", "properties": { "id": 21, "SAMPLE_1": 18409 }, "geometry": { "type": "Point", "coordinates": [ 3954634.42450000019744, 2912258.8427 ] } },
{ "type": "Feature", "properties": { "id": 22, "SAMPLE_1": 18437 }, "geometry": { "type": "Point", "coordinates": [ 3955234.42450000019744, 2912258.8427 ] } },
{ "type": "Feature", "properties": { "id": 23, "SAMPLE_1": 18399 }, "geometry": { "type": "Point", "coordinates": [ 3955434.42450000019744, 2912258.8427 ] } },
{ "type": "Feature", "properties": { "id": 24, "SAMPLE_1": 18102 }, "geometry": { "type": "Point", "coordinates": [ 3955834.42450000019744, 2912258.8427 ] } },
{ "type": "Feature", "properties": { "id": 25, "SAMPLE_1": 18494 }, "geometry": { "type": "Point", "coordinates": [ 3953234.42450000019744, 2912158.8427 ] } },
{ "type": "Feature", "properties": { "id": 26, "SAMPLE_1": 18409 }, "geometry": { "type": "Point", "coordinates": [ 3954034.42450000019744, 2912158.8427 ] } },
{ "type": "Feature", "properties": { "id": 27, "SAMPLE_1": 18437 }, "geometry": { "type": "Point", "coordinates": [ 3954834.42450000019744, 2912158.8427 ] } },
{ "type": "Feature", "properties": { "id": 28, "SAMPLE_1": 18249 }, "geometry": { "type": "Point", "coordinates": [ 3955034.42450000019744, 2912158.8427 ] } },
{ "type": "Feature", "properties": { "id": 29, "SAMPLE_1": 18159 }, "geometry": { "type": "Point", "coordinates": [ 3955734.42450000019744, 2912158.8427 ] } },
{ "type": "Feature", "properties": { "id": 30, "SAMPLE_1": 18464 }, "geometry": { "type": "Point", "coordinates": [ 3952934.42450000019744, 2911958.8427 ] } },
{ "type": "Feature", "properties": { "id": 31, "SAMPLE_1": 18464 }, "geometry": { "type": "Point", "coordinates": [ 3953134.42450000019744, 2911958.8427 ] } },
{ "type": "Feature", "properties": { "id": 32, "SAMPLE_1": 18437 }, "geometry": { "type": "Point", "coordinates": [ 3954434.42450000019744, 2911958.8427 ] } },
{ "type": "Feature", "properties": { "id": 33, "SAMPLE_1": 18077 }, "geometry": { "type": "Point", "coordinates": [ 3955834.42450000019744, 2911958.8427 ] } },
{ "type": "Feature", "properties": { "id": 34, "SAMPLE_1": 18437 }, "geometry": { "type": "Point", "coordinates": [ 3953534.42450000019744, 2911858.8427 ] } },
{ "type": "Feature", "properties": { "id": 35, "SAMPLE_1": 18437 }, "geometry": { "type": "Point", "coordinates": [ 3953834.42450000019744, 2911858.8427 ] } },
{ "type": "Feature", "properties": { "id": 36, "SAMPLE_1": 18464 }, "geometry": { "type": "Point", "coordinates": [ 3953334.42450000019744, 2911758.8427 ] } },
{ "type": "Feature", "properties": { "id": 37, "SAMPLE_1": 18464 }, "geometry": { "type": "Point", "coordinates": [ 3953534.42450000019744, 2911758.8427 ] } },
{ "type": "Feature", "properties": { "id": 38, "SAMPLE_1": 18234 }, "geometry": { "type": "Point", "coordinates": [ 3954834.42450000019744, 2911758.8427 ] } },
{ "type": "Feature", "properties": { "id": 39, "SAMPLE_1": 18494 }, "geometry": { "type": "Point", "coordinates": [ 3955134.42450000019744, 2911758.8427 ] } },
{ "type": "Feature", "properties": { "id": 40, "SAMPLE_1": 18132 }, "geometry": { "type": "Point", "coordinates": [ 3956134.42450000019744, 2911758.8427 ] } },
{ "type": "Feature", "properties": { "id": 41, "SAMPLE_1": 18437 }, "geometry": { "type": "Point", "coordinates": [ 3953034.42450000019744, 2911658.8427 ] } },
{ "type": "Feature", "properties": { "id": 42, "SAMPLE_1": 18494 }, "geometry": { "type": "Point", "coordinates": [ 3954134.42450000019744, 2911658.8427 ] } },
{ "type": "Feature", "properties": { "id": 43, "SAMPLE_1": 18277 }, "geometry": { "type": "Point", "coordinates": [ 3954634.42450000019744, 2911658.8427 ] } },
{ "type": "Feature", "properties": { "id": 44, "SAMPLE_1": 18277 }, "geometry": { "type": "Point", "coordinates": [ 3954834.42450000019744, 2911658.8427 ] } },
{ "type": "Feature", "properties": { "id": 45, "SAMPLE_1": 18414 }, "geometry": { "type": "Point", "coordinates": [ 3953134.42450000019744, 2911458.8427 ] } },
{ "type": "Feature", "properties": { "id": 46, "SAMPLE_1": 18369 }, "geometry": { "type": "Point", "coordinates": [ 3953334.42450000019744, 2911358.8427 ] } },
{ "type": "Feature", "properties": { "id": 47, "SAMPLE_1": 18337 }, "geometry": { "type": "Point", "coordinates": [ 3954234.42450000019744, 2911358.8427 ] } },
{ "type": "Feature", "properties": { "id": 48, "SAMPLE_1": 18277 }, "geometry": { "type": "Point", "coordinates": [ 3954834.42450000019744, 2911358.8427 ] } },
{ "type": "Feature", "properties": { "id": 49, "SAMPLE_1": 18402 }, "geometry": { "type": "Point", "coordinates": [ 3953734.42450000019744, 2911158.8427 ] } },
{ "type": "Feature", "properties": { "id": 50, "SAMPLE_1": 18077 }, "geometry": { "type": "Point", "coordinates": [ 3953734.42450000019744, 2910958.8427 ] } }
]
}
